{
  "links" : {
    "next" : "https://api.nasa.gov/neo/rest/v1/feed?start_date=2008-04-16&end_date=2008-04-16&detailed=true&api_key=t0TVs3DtDT2H8Oy2Zy8m2eVrNsAVKAexjcZXUckd",
    "prev" : "https://api.nasa.gov/neo/rest/v1/feed?start_date=2008-04-14&end_date=2008-04-14&detailed=true&api_key=t0TVs3DtDT2H8Oy2Zy8m2eVrNsAVKAexjcZXUckd",
    "self" : "https://api.nasa.gov/neo/rest/v1/feed?start_date=2008-04-15&end_date=2008-04-15&detailed=true&api_key=t0TVs3DtDT2H8Oy2Zy8m2eVrNsAVKAexjcZXUckd"
  },
  "element_count" : 7,
  "near_earth_objects" : {
    "2008-04-15" : [ {
      "links" : {
        "self" : "https://api.nasa.gov/neo/rest/v1/neo/3404524?api_key=t0TVs3DtDT2H8Oy2Zy8m2eVrNsAVKAexjcZXUckd"
      },
      "neo_reference_id" : "3404524",
      "name" : "(2008 EH)",
      "nasa_jpl_url" : "http://ssd.jpl.nasa.gov/sbdb.cgi?sstr=3404524",
      "absolute_magnitude_h" : 22.8,
      "estimated_diameter" : {
        "kilometers" : {
          "estimated_diameter_min" : 0.0732073989,
          "estimated_diameter_max" : 0.1636967205
        },
        "meters" : {
          "estimated_diameter_min" : 73.2073989347,
          "estimated_diameter_max" : 163.696720474
        },
        "miles" : {
          "estimated_diameter_min" : 0.0454889547,
          "estimated_diameter_max" : 0.1017163949
        },
        "feet" : {
          "estimated_diameter_min" : 240.181762721,
          "estimated_diameter_max" : 537.0627483999
        }
      },
      "is_potentially_hazardous_asteroid" : false,
      "close_approach_data" : [ {
        "close_approach_date" : "2008-04-15",
        "epoch_date_close_approach" : 1208242800000,
        "relative_velocity" : {
          "kilometers_per_second" : "8.9604454706",
          "kilometers_per_hour" : "32257.6036941557",
          "miles_per_hour" : "20043.6204731825"
        },
        "miss_distance" : {
          "astronomical" : "0.0336347552",
          "lunar" : "13.0839195251",
          "kilometers" : "5031688",
          "miles" : "3126546"
        },
        "orbiting_body" : "Earth"
      } ],
      "orbital_data" : {
        "orbit_id" : "11",
        "orbit_determination_date" : "2017-04-06 09:04:11",
        "orbit_uncertainty" : "7",
        "minimum_orbit_intersection" : ".0189179",
        "jupiter_tisserand_invariant" : "3.312",
        "epoch_osculation" : "2458000.5",
        "eccentricity" : ".5865772940630555",
        "semi_major_axis" : "2.334399630615021",
        "inclination" : "3.723405682523515",
        "ascending_node_longitude" : "28.50709352845438",
        "orbital_period" : "1302.750461274665",
        "perihelion_distance" : ".9650938120270659",
        "perihelion_argument" : "186.0209410266384",
        "aphelion_distance" : "3.703705449202977",
        "perihelion_time" : "2458484.784971627513",
        "mean_anomaly" : "226.1734576433613",
        "mean_motion" : ".2763384168352249",
        "equinox" : "J2000"
      }
    }, {
      "links" : {
        "self" : "https://api.nasa.gov/neo/rest/v1/neo/2009856?api_key=t0TVs3DtDT2H8Oy2Zy8m2eVrNsAVKAexjcZXUckd"
      },
      "neo_reference_id" : "2009856",
      "name" : "9856 (1991 EE)",
      "nasa_jpl_url" : "http://ssd.jpl.nasa.gov/sbdb.cgi?sstr=2009856",
      "absolute_magnitude_h" : 17.4,
      "estimated_diameter" : {
        "kilometers" : {
          "estimated_diameter_min" : 0.8801465209,
          "estimated_diameter_max" : 1.9680674509
        },
        "meters" : {
          "estimated_diameter_min" : 880.1465209007,
          "estimated_diameter_max" : 1968.067450894
        },
        "miles" : {
          "estimated_diameter_min" : 0.5468975238,
          "estimated_diameter_max" : 1.22290004
        },
        "feet" : {
          "estimated_diameter_min" : 2887.6199116319,
          "estimated_diameter_max" : 6456.914415591
        }
      },
      "is_potentially_hazardous_asteroid" : true,
      "close_approach_data" : [ {
        "close_approach_date" : "2008-04-15",
        "epoch_date_close_approach" : 1208242800000,
        "relative_velocity" : {
          "kilometers_per_second" : "24.7243549484",
          "kilometers_per_hour" : "89007.6778143066",
          "miles_per_hour" : "55305.9095841173"
        },
        "miss_distance" : {
          "astronomical" : "0.3695169062",
          "lunar" : "143.7420806885",
          "kilometers" : "55278944",
          "miles" : "34348744"
        },
        "orbiting_body" : "Earth"
      } ],
      "orbital_data" : {
        "orbit_id" : "80",
        "orbit_determination_date" : "2017-04-06 09:29:57",
        "orbit_uncertainty" : "0",
        "minimum_orbit_intersection" : ".0223148",
        "jupiter_tisserand_invariant" : "3.329",
        "epoch_osculation" : "2458000.5",
        "eccentricity" : ".6259301955301843",
        "semi_major_axis" : "2.242335391272294",
        "inclination" : "9.826916676082615",
        "ascending_node_longitude" : "168.162897580468",
        "orbital_period" : "1226.448409042803",
        "perihelion_distance" : ".8387899613689749",
        "perihelion_argument" : "116.1550876754223",
        "aphelion_distance" : "3.645880821175614",
        "perihelion_time" : "2458301.881283160650",
        "mean_anomaly" : "271.5354048830215",
        "mean_motion" : ".2935304879892718",
        "equinox" : "J2000"
      }
    }, {
      "links" : {
        "self" : "https://api.nasa.gov/neo/rest/v1/neo/2175706?api_key=t0TVs3DtDT2H8Oy2Zy8m2eVrNsAVKAexjcZXUckd"
      },
      "neo_reference_id" : "2175706",
      "name" : "175706 (1996 FG3)",
      "nasa_jpl_url" : "http://ssd.jpl.nasa.gov/sbdb.cgi?sstr=2175706",
      "absolute_magnitude_h" : 18.4,
      "estimated_diameter" : {
        "kilometers" : {
          "estimated_diameter_min" : 0.5553349116,
          "estimated_diameter_max" : 1.2417666126
        },
        "meters" : {
          "estimated_diameter_min" : 555.334911581,
          "estimated_diameter_max" : 1241.766612574
        },
        "miles" : {
          "estimated_diameter_min" : 0.3450690093,
          "estimated_diameter_max" : 0.7715977618
        },
        "feet" : {
          "estimated_diameter_min" : 1821.9649913114,
          "estimated_diameter_max" : 4074.0375731972
        }
      },
      "is_potentially_hazardous_asteroid" : true,
      "close_approach_data" : [ {
        "close_approach_date" : "2008-04-15",
        "epoch_date_close_approach" : 1208242800000,
        "relative_velocity" : {
          "kilometers_per_second" : "21.7110840246",
          "kilometers_per_hour" : "78159.9024887065",
          "miles_per_hour" : "48565.5238547188"
        },
        "miss_distance" : {
          "astronomical" : "0.3560394185",
          "lunar" : "138.4993286133",
          "kilometers" : "53262736",
          "miles" : "33095930"
        },
        "orbiting_body" : "Earth"
      } ],
      "orbital_data" : {
        "orbit_id" : "143",
        "orbit_determination_date" : "2017-04-06 09:25:56",
        "orbit_uncertainty" : "0",
        "minimum_orbit_intersection" : ".028314",
        "jupiter_tisserand_invariant" : "5.779",
        "epoch_osculation" : "2458000.5",
        "eccentricity" : ".3498175834077441",
        "semi_major_axis" : "1.054028686106748",
        "inclination" : "1.991106291938947",
        "ascending_node_longitude" : "299.7065641824987",
        "orbital_period" : "395.2547272990419",
        "perihelion_distance" : ".6853109182904454",
        "perihelion_argument" : "24.02903301999085",
        "aphelion_distance" : "1.42274645392305",
        "perihelion_time" : "2458192.870282498097",
        "mean_anomaly" : "184.7881760388938",
        "mean_motion" : ".910805045799316",
        "equinox" : "J2000"
      }
    } ]
  }
}